start=new Date('2022-07-21T00:00:00.000Z').valueOf();
sats=[{"ELEMENT_SET_NO":"999","MEAN_ANOMALY":"313.7365","MEAN_ELEMENT_THEORY":"SGP4","FILE":"3518363","EPHEMERIS_TYPE":"0","NORAD_CAT_ID":"46746","APOAPSIS":"548.432","OBJECT_NAME":"STARLINK-1905","RA_OF_ASC_NODE":"162.3337","GP_ID":"208533283","CENTER_NAME":"EARTH","TLE_LINE2":"2 46746  53.0535 162.3337 0001661  46.3761 313.7365 15.06377633 96549","DECAY_DATE":null,"MEAN_MOTION":"15.06377633","TIME_SYSTEM":"UTC","REF_FRAME":"TEME","MEAN_MOTION_DDOT":"0.0000000000000","OBJECT_TYPE":"PAYLOAD","PERIAPSIS":"546.132","BSTAR":"-0.00013297000000","MEAN_MOTION_DOT":"-0.00002260","ARG_OF_PERICENTER":"46.3761","RCS_SIZE":"LARGE","SEMIMAJOR_AXIS":"6925.417","LAUNCH_DATE":"2020-10-24","INCLINATION":"53.0535","COUNTRY_CODE":"US","EPOCH":"2022-07-20T21:26:56.754816","OBJECT_ID":"2020-074H","ECCENTRICITY":"0.00016610","PERIOD":"95.594","REV_AT_EPOCH":"9654","CLASSIFICATION_TYPE":"U","SITE":"AFETR","TLE_LINE1":"1 46746U 20074H   22201.89371244 -.00002260  00000-0 -13297-3 0  9992"},{"COUNTRY_CODE":"US","INCLINATION":"53.0547","PERIOD":"95.592","ECCENTRICITY":"0.00016180","OBJECT_ID":"2020-074J","EPOCH":"2022-07-20T06:40:30.335232","SITE":"AFETR","CLASSIFICATION_TYPE":"U","TLE_LINE1":"1 46747U 20074J   22201.27812888  .00002490  00000-0  18598-3 0  9991","REV_AT_EPOCH":"9645","ARG_OF_PERICENTER":"68.8582","BSTAR":"0.00018598000000","OBJECT_TYPE":"PAYLOAD","PERIAPSIS":"546.076","MEAN_MOTION_DOT":"0.00002490","RCS_SIZE":"LARGE","SEMIMAJOR_AXIS":"6925.331","LAUNCH_DATE":"2020-10-24","TLE_LINE2":"2 46747  53.0547 165.1004 0001618  68.8582 291.2579 15.06405702 96453","CENTER_NAME":"EARTH","GP_ID":"208502285","REF_FRAME":"TEME","TIME_SYSTEM":"UTC","MEAN_MOTION_DDOT":"0.0000000000000","MEAN_MOTION":"15.06405702","DECAY_DATE":null,"FILE":"3518111","ELEMENT_SET_NO":"999","MEAN_ANOMALY":"291.2579","MEAN_ELEMENT_THEORY":"SGP4","NORAD_CAT_ID":"46747","EPHEMERIS_TYPE":"0","APOAPSIS":"548.317","RA_OF_ASC_NODE":"165.1004","OBJECT_NAME":"STARLINK-1908"},{"ECCENTRICITY":"0.00015700","PERIOD":"95.593","OBJECT_ID":"2020-074K","EPOCH":"2022-07-20T06:51:08.400960","SITE":"AFETR","CLASSIFICATION_TYPE":"U","TLE_LINE1":"1 46748U 20074K   22201.28551390  .00002362  00000-0  17746-3 0  9993","REV_AT_EPOCH":"9645","COUNTRY_CODE":"US","INCLINATION":"53.0530","SEMIMAJOR_AXIS":"6925.383","LAUNCH_DATE":"2020-10-24","ARG_OF_PERICENTER":"70.6599","OBJECT_TYPE":"PAYLOAD","PERIAPSIS":"546.160","BSTAR":"0.00017746000000","MEAN_MOTION_DOT":"0.00002362","RCS_SIZE":"LARGE","TIME_SYSTEM":"UTC","REF_FRAME":"TEME","MEAN_MOTION_DDOT":"0.0000000000000","DECAY_DATE":null,"MEAN_MOTION":"15.06388860","TLE_LINE2":"2 46748  53.0530 165.0639 0001570  70.6599 289.4559 15.06388860 96457","CENTER_NAME":"EARTH","GP_ID":"208502801","APOAPSIS":"548.335","RA_OF_ASC_NODE":"165.0639","OBJECT_NAME":"STARLINK-1910","FILE":"3518111","ELEMENT_SET_NO":"999","MEAN_ANOMALY":"289.4559","MEAN_ELEMENT_THEORY":"SGP4","NORAD_CAT_ID":"46748","EPHEMERIS_TYPE":"0"},{"ECCENTRICITY":"0.00016030","PERIOD":"95.592","OBJECT_ID":"2020-074L","EPOCH":"2022-07-20T07:01:44.641056","TLE_LINE1":"1 46749U 20074L   22201.29287779  .00001535  00000-0  12190-3 0  9991","SITE":"AFETR","CLASSIFICATION_TYPE":"U","REV_AT_EPOCH":"9645","COUNTRY_CODE":"US","INCLINATION":"53.0538","LAUNCH_DATE":"2020-10-24","SEMIMAJOR_AXIS":"6925.352","ARG_OF_PERICENTER":"68.4609","MEAN_MOTION_DOT":"0.00001535","OBJECT_TYPE":"PAYLOAD","PERIAPSIS":"546.106","BSTAR":"0.00012190000000","RCS_SIZE":"LARGE","MEAN_MOTION_DDOT":"0.0000000000000","REF_FRAME":"TEME","TIME_SYSTEM":"UTC","DECAY_DATE":null,"MEAN_MOTION":"15.06399011","TLE_LINE2":"2 46749  53.0538 165.0350 0001603  68.4609 291.6551 15.06399011 96457","CENTER_NAME":"EARTH","GP_ID":"208502549","APOAPSIS":"548.327","RA_OF_ASC_NODE":"165.0350","OBJECT_NAME":"STARLINK-1911","FILE":"3518111","MEAN_ELEMENT_THEORY":"SGP4","ELEMENT_SET_NO":"999","MEAN_ANOMALY":"291.6551","NORAD_CAT_ID":"46749","EPHEMERIS_TYPE":"0"},{"MEAN_MOTION_DDOT":"0.0000000000000","TIME_SYSTEM":"UTC","REF_FRAME":"TEME","MEAN_MOTION":"15.06398121","DECAY_DATE":null,"TLE_LINE2":"2 46751  53.0552 162.3673 0001605  77.2711 282.8457 15.06398121 96546","CENTER_NAME":"EARTH","GP_ID":"208533784","APOAPSIS":"548.331","RA_OF_ASC_NODE":"162.3673","OBJECT_NAME":"STARLINK-1920","FILE":"3518363","MEAN_ELEMENT_THEORY":"SGP4","MEAN_ANOMALY":"282.8457","ELEMENT_SET_NO":"999","NORAD_CAT_ID":"46751","EPHEMERIS_TYPE":"0","PERIOD":"95.592","ECCENTRICITY":"0.00016050","EPOCH":"2022-07-20T21:16:18.166368","OBJECT_ID":"2020-074N","TLE_LINE1":"1 46751U 20074N   22201.88632137  .00001518  00000-0  12076-3 0  9995","SITE":"AFETR","CLASSIFICATION_TYPE":"U","REV_AT_EPOCH":"9654","COUNTRY_CODE":"US","INCLINATION":"53.0552","LAUNCH_DATE":"2020-10-24","SEMIMAJOR_AXIS":"6925.354","ARG_OF_PERICENTER":"77.2711","OBJECT_TYPE":"PAYLOAD","PERIAPSIS":"546.108","MEAN_MOTION_DOT":"0.00001518","BSTAR":"0.00012076000000","RCS_SIZE":"LARGE"},{"RA_OF_ASC_NODE":"165.5751","OBJECT_NAME":"STARLINK-1921","APOAPSIS":"548.542","NORAD_CAT_ID":"46752","EPHEMERIS_TYPE":"0","FILE":"3518111","MEAN_ELEMENT_THEORY":"SGP4","MEAN_ANOMALY":"299.1798","ELEMENT_SET_NO":"999","MEAN_MOTION_DDOT":"0.0000000000000","TIME_SYSTEM":"UTC","REF_FRAME":"TEME","DECAY_DATE":null,"MEAN_MOTION":"15.06402280","CENTER_NAME":"EARTH","TLE_LINE2":"2 46752  53.0546 165.5751 0001928  60.9384 299.1798 15.06402280 96434","GP_ID":"208502786","LAUNCH_DATE":"2020-10-24","SEMIMAJOR_AXIS":"6925.342","RCS_SIZE":"LARGE","ARG_OF_PERICENTER":"60.9384","PERIAPSIS":"545.871","OBJECT_TYPE":"PAYLOAD","BSTAR":"0.00000326010000","MEAN_MOTION_DOT":"-0.00000233","TLE_LINE1":"1 46752U 20074P   22201.16755300 -.00000233  00000-0  32601-5 0  9997","SITE":"AFETR","CLASSIFICATION_TYPE":"U","REV_AT_EPOCH":"9643","PERIOD":"95.592","ECCENTRICITY":"0.00019280","OBJECT_ID":"2020-074P","EPOCH":"2022-07-20T04:01:16.579200","COUNTRY_CODE":"US","INCLINATION":"53.0546"},{"OBJECT_NAME":"STARLINK-1922","RA_OF_ASC_NODE":"165.1388","APOAPSIS":"548.347","EPHEMERIS_TYPE":"0","NORAD_CAT_ID":"46753","MEAN_ANOMALY":"285.7239","ELEMENT_SET_NO":"999","MEAN_ELEMENT_THEORY":"SGP4","FILE":"3518111","DECAY_DATE":null,"MEAN_MOTION":"15.06401350","TIME_SYSTEM":"UTC","REF_FRAME":"TEME","MEAN_MOTION_DDOT":"0.0000000000000","GP_ID":"208502301","CENTER_NAME":"EARTH","TLE_LINE2":"2 46753  53.0560 165.1388 0001643  74.3931 285.7239 15.06401350 96454","SEMIMAJOR_AXIS":"6925.344","LAUNCH_DATE":"2020-10-24","RCS_SIZE":"LARGE","OBJECT_TYPE":"PAYLOAD","BSTAR":"0.00004481500000","PERIAPSIS":"546.072","MEAN_MOTION_DOT":"0.00000386","ARG_OF_PERICENTER":"74.3931","REV_AT_EPOCH":"9645","CLASSIFICATION_TYPE":"U","SITE":"AFETR","TLE_LINE1":"1 46753U 20074Q   22201.26708127  .00000386  00000-0  44815-4 0  9991","EPOCH":"2022-07-20T06:24:35.821728","OBJECT_ID":"2020-074Q","PERIOD":"95.592","ECCENTRICITY":"0.00016430","INCLINATION":"53.0560","COUNTRY_CODE":"US"},{"SEMIMAJOR_AXIS":"6925.414","LAUNCH_DATE":"2020-10-24","RCS_SIZE":"LARGE","ARG_OF_PERICENTER":"77.3394","OBJECT_TYPE":"PAYLOAD","PERIAPSIS":"546.637","BSTAR":"0.00007842800000","MEAN_MOTION_DOT":"0.00000886","SITE":"AFETR","CLASSIFICATION_TYPE":"U","TLE_LINE1":"1 46754U 20074R   22201.87158745  .00000886  00000-0  78428-4 0  9996","REV_AT_EPOCH":"9655","PERIOD":"95.593","ECCENTRICITY":"0.00009270","OBJECT_ID":"2020-074R","EPOCH":"2022-07-20T20:55:05.155680","COUNTRY_CODE":"US","INCLINATION":"53.0542","RA_OF_ASC_NODE":"162.4168","OBJECT_NAME":"STARLINK-1923","APOAPSIS":"547.921","NORAD_CAT_ID":"46754","EPHEMERIS_TYPE":"0","FILE":"3518264","ELEMENT_SET_NO":"999","MEAN_ANOMALY":"282.7699","MEAN_ELEMENT_THEORY":"SGP4","TIME_SYSTEM":"UTC","REF_FRAME":"TEME","MEAN_MOTION_DDOT":"0.0000000000000","DECAY_DATE":null,"MEAN_MOTION":"15.06378701","TLE_LINE2":"2 46754  53.0542 162.4168 0000927  77.3394 282.7699 15.06378701 96552","CENTER_NAME":"EARTH","GP_ID":"208510627"},{"MEAN_MOTION":"15.06403571","DECAY_DATE":null,"TIME_SYSTEM":"UTC","REF_FRAME":"TEME","MEAN_MOTION_DDOT":"0.0000000000000","GP_ID":"208533284","CENTER_NAME":"EARTH","TLE_LINE2":"2 46755  53.0539 167.3962 0001842  57.8955 302.2213 15.06403571 96473","APOAPSIS":"548.478","OBJECT_NAME":"STARLINK-1924","RA_OF_ASC_NODE":"167.3962","MEAN_ANOMALY":"302.2213","ELEMENT_SET_NO":"999","MEAN_ELEMENT_THEORY":"SGP4","FILE":"3518363","EPHEMERIS_TYPE":"0","NORAD_CAT_ID":"46755","EPOCH":"2022-07-20T21:02:21.409152","OBJECT_ID":"2020-074S","PERIOD":"95.592","ECCENTRICITY":"0.00018420","REV_AT_EPOCH":"9647","SITE":"AFETR","CLASSIFICATION_TYPE":"U","TLE_LINE1":"1 46755U 20074S   22201.87663668  .00000524  00000-0  54091-4 0  9991","INCLINATION":"53.0539","COUNTRY_CODE":"US","SEMIMAJOR_AXIS":"6925.338","LAUNCH_DATE":"2020-10-24","PERIAPSIS":"545.927","OBJECT_TYPE":"PAYLOAD","BSTAR":"0.00005409100000","MEAN_MOTION_DOT":"0.00000524","ARG_OF_PERICENTER":"57.8955","RCS_SIZE":"LARGE"},{"ARG_OF_PERICENTER":"54.1719","MEAN_MOTION_DOT":"0.00001706","OBJECT_TYPE":"PAYLOAD","PERIAPSIS":"546.087","BSTAR":"0.00013343000000","RCS_SIZE":"LARGE","LAUNCH_DATE":"2020-10-24","SEMIMAJOR_AXIS":"6925.352","COUNTRY_CODE":"US","INCLINATION":"53.0529","PERIOD":"95.592","ECCENTRICITY":"0.00016320","EPOCH":"2022-07-20T21:44:53.735136","OBJECT_ID":"2020-074T","TLE_LINE1":"1 46756U 20074T   22201.90617749  .00001706  00000-0  13343-3 0  9992","SITE":"AFETR","CLASSIFICATION_TYPE":"U","REV_AT_EPOCH":"9647","FILE":"3518363","MEAN_ELEMENT_THEORY":"SGP4","ELEMENT_SET_NO":"999","MEAN_ANOMALY":"305.9421","NORAD_CAT_ID":"46756","EPHEMERIS_TYPE":"0","APOAPSIS":"548.347","RA_OF_ASC_NODE":"167.6660","OBJECT_NAME":"STARLINK-1925","TLE_LINE2":"2 46756  53.0529 167.6660 0001632  54.1719 305.9421 15.06398815 96471","CENTER_NAME":"EARTH","GP_ID":"208534536","MEAN_MOTION_DDOT":"0.0000000000000","REF_FRAME":"TEME","TIME_SYSTEM":"UTC","DECAY_DATE":null,"MEAN_MOTION":"15.06398815"}];
